ICEYE-X39               
1 60546U 24149CG  26195.69451415  .00002311  00000+0  19018-3 0  9997
2 60546  97.6789 272.3471 0006980  48.2807 311.9012 15.00070846104246
UMBRA-10                
1 60547U 24149CH  26195.81010953  .00008697  00000+0  42073-3 0  9990
2 60547  97.6982 283.5339 0001690 167.9758 192.1517 15.18843070104926
ICEYE-X33               
1 60548U 24149CJ  26195.76982299  .00002874  00000+0  23058-3 0  9999
2 60548  97.7366 274.7720 0001873  75.6898 284.4534 15.00882745104346
ICEYE-X40               
1 60549U 24149CK  26195.75628354  .00001417  00000+0  12472-3 0  9998
2 60549  97.6797 271.8091 0003971   7.7825 352.3459 14.98068753104207
SATELIOT_1              
1 60550U 24149CL  26195.74518814  .00001098  00000+0  97492-4 0  9999
2 60550  97.6732 271.1848 0005692 353.8107   6.3044 14.98161700104191
BRO-14                  
1 60551U 24149CM  26195.74870392  .00000878  00000+0  82853-4 0  9992
2 60551  97.6864 271.0310 0006762  19.2732 340.8744 14.96235048104117
SATELIOT_3              
1 60552U 24149CN  26195.78789388  .00000352  00000+0  34553-4 0  9992
2 60552  97.6820 272.0448 0005103   6.6871 353.4418 14.98163294104219
BRO-15                  
1 60553U 24149CP  26195.73138440  .00000231  00000+0  25505-4 0  9998
2 60553  97.6792 270.5901 0007828   5.9405 354.1908 14.96221395104123
UM5-RIBAT               
1 60554U 24149CQ  26195.80156897  .00001232  00000+0  10059-3 0  9992
2 60554  97.6607 273.2275 0000755 354.0748   6.0468 15.01217222104331
UM5-EOSAT               
1 60555U 24149CR  26195.95892814  .00001942  00000+0  15381-3 0  9996
2 60555  97.6776 274.3839 0009127  36.2286 323.9555 15.01727849104389
LASARSAT                
1 62391U 24247Q   26195.93235013  .00021592  00000+0  40881-3 0  9991
2 62391  44.9739 106.1046 0007354 164.5391 195.5725 15.48033197 87612
CROCUBE                 
1 62394U 24247T   26195.44298929  .00025737  00000+0  45084-3 0  9990
2 62394  44.9723 105.7215 0007458 167.1731 192.9351 15.50156590 87570
TEVEL2-4                
1 63213U 25052D   26195.69012354  .00010349  00000+0  30168-3 0  9999
2 63213  97.3873  92.1411 0003581  52.7606 307.3964 15.35555371 74334
TEVEL2-5                
1 63214U 25052E   26195.71383550  .00010851  00000+0  31806-3 0  9990
2 63214  97.3870  92.1047 0003638  54.2454 305.9128 15.35369597 74337
TEVEL2-6                
1 63215U 25052F   26195.66162234  .00010923  00000+0  32054-3 0  9995
2 63215  97.3876  92.0373 0003680  56.3552 303.8042 15.35331616 74326
TEVEL2-1                
1 63217U 25052H   26195.63531658  .00009885  00000+0  29557-3 0  9993
2 63217  97.3847  91.6018 0004319  61.6960 298.4718 15.34761887 74302
TEVEL2-3                
1 63218U 25052J   26195.69409510  .00009878  00000+0  29479-3 0  9996
2 63218  97.3851  91.6861 0004049  62.6688 297.4967 15.34825600 74312
TEVEL2-2                
1 63219U 25052K   26195.96143933  .00010174  00000+0  30398-3 0  9994
2 63219  97.3841  91.9311 0004337  61.0263 299.1415 15.34779518 74354
TEVEL2-9                
1 63237U 25052AD  26195.64897023  .00009574  00000+0  30513-3 0  9996
2 63237  97.3910  90.9324 0007719  58.9177 301.2822 15.32721747 74233
TEVEL2-7                
1 63238U 25052AE  26195.69534027  .00009140  00000+0  29430-3 0  9999
2 63238  97.3908  90.8827 0007785  58.0835 302.1163 15.32406537 74238
TEVEL2-8                
1 63239U 25052AF  26195.70385767  .00009092  00000+0  29291-3 0  9998
2 63239  97.3909  90.8675 0007827  59.1574 301.0437 15.32392229 74234
FORESAIL-1 PRIME        
1 66778U 25276DS  26195.73308698  .00002563  00000+0  12593-3 0  9991
2 66778  97.4193 268.5019 0002909  45.5776 314.5696 15.18936030 34584
